{
  "norad_id": 47919,
  "name": "STARLINK-2405",
  "history": [
    {
      "epoch": "2026-04-14T17:30:30.762144Z",
      "apogee_km": 471.68687083081204,
      "perigee_km": 469.7691886224875,
      "latitude_deg": 6.287222930507587e-05,
      "longitude_deg": 7.993108286623152,
      "height_km": 471.3558294616093,
      "semi_major_axis_km": 6848.8650297266495,
      "eccentricity": 0.00014,
      "inclination_deg": 53.162,
      "raan_deg": 113.523,
      "arg_perigee_deg": 73.5843,
      "mean_anomaly_deg": 286.5313,
      "mean_motion_rev_day": 15.31704014
    },
    {
      "epoch": "2026-04-15T16:59:55.270176Z",
      "apogee_km": 471.97521657183097,
      "perigee_km": 469.48496849698495,
      "latitude_deg": 2.7275998922984148e-05,
      "longitude_deg": 10.118460978525304,
      "height_km": 471.2670589386326,
      "semi_major_axis_km": 6848.867092534408,
      "eccentricity": 0.0001818,
      "inclination_deg": 53.1607,
      "raan_deg": 108.9652,
      "arg_perigee_deg": 73.1407,
      "mean_anomaly_deg": 286.9794,
      "mean_motion_rev_day": 15.31703322
    },
    {
      "epoch": "2026-04-16T07:05:33.789408Z",
      "apogee_km": 471.5564600032603,
      "perigee_km": 469.8853386758228,
      "latitude_deg": 7.64586165222859e-05,
      "longitude_deg": 155.39708059233416,
      "height_km": 471.37628212360084,
      "semi_major_axis_km": 6848.857899339541,
      "eccentricity": 0.000122,
      "inclination_deg": 53.1599,
      "raan_deg": 106.2331,
      "arg_perigee_deg": 73.0639,
      "mean_anomaly_deg": 287.0497,
      "mean_motion_rev_day": 15.31706406
    },
    {
      "epoch": "2026-04-17T11:16:50.176416Z",
      "apogee_km": 471.61722259175076,
      "perigee_km": 469.75174059659366,
      "latitude_deg": -3.839823775108741e-05,
      "longitude_deg": 85.95498238251518,
      "height_km": 471.4364678797577,
      "semi_major_axis_km": 6848.821481594172,
      "eccentricity": 0.00013619,
      "inclination_deg": 53.161,
      "raan_deg": 100.767,
      "arg_perigee_deg": 80.9514,
      "mean_anomaly_deg": 279.1641,
      "mean_motion_rev_day": 15.31718623
    },
    {
      "epoch": "2026-04-18T10:46:15.195072Z",
      "apogee_km": 471.6618115342617,
      "perigee_km": 469.7571473283306,
      "latitude_deg": 2.79309044273376e-05,
      "longitude_deg": 88.07837636733362,
      "height_km": 471.49953684818144,
      "semi_major_axis_km": 6848.846479431296,
      "eccentricity": 0.00013905,
      "inclination_deg": 53.16,
      "raan_deg": 96.2093,
      "arg_perigee_deg": 83.461,
      "mean_anomaly_deg": 276.655,
      "mean_motion_rev_day": 15.31710237
    },
    {
      "epoch": "2026-04-19T03:59:48.455520Z",
      "apogee_km": 471.5945613440317,
      "perigee_km": 469.75332700980016,
      "latitude_deg": -3.377909645571567e-05,
      "longitude_deg": -174.35959783127453,
      "height_km": 471.5704745067563,
      "semi_major_axis_km": 6848.810944176916,
      "eccentricity": 0.00013442,
      "inclination_deg": 53.1602,
      "raan_deg": 92.8674,
      "arg_perigee_deg": 89.8716,
      "mean_anomaly_deg": 270.2439,
      "mean_motion_rev_day": 15.31722158
    },
    {
      "epoch": "2026-04-20T08:11:06.722592Z",
      "apogee_km": 471.5964613759397,
      "perigee_km": 469.912182022108,
      "latitude_deg": 2.5529724420602848e-06,
      "longitude_deg": 116.18975787370374,
      "height_km": 471.7103166458462,
      "semi_major_axis_km": 6848.891321699024,
      "eccentricity": 0.00012296,
      "inclination_deg": 53.1604,
      "raan_deg": 87.4005,
      "arg_perigee_deg": 93.8971,
      "mean_anomaly_deg": 266.2171,
      "mean_motion_rev_day": 15.31695194
    },
    {
      "epoch": "2026-04-20T22:16:45.743808Z",
      "apogee_km": 471.5925498308716,
      "perigee_km": 469.9132020332927,
      "latitude_deg": 1.133958235762584e-05,
      "longitude_deg": -98.53495237802684,
      "height_km": 471.66251023708816,
      "semi_major_axis_km": 6848.889875932082,
      "eccentricity": 0.0001226,
      "inclination_deg": 53.1605,
      "raan_deg": 84.6672,
      "arg_perigee_deg": 90.7413,
      "mean_anomaly_deg": 269.3729,
      "mean_motion_rev_day": 15.31695679
    },
    {
      "epoch": "2026-04-22T14:59:44.708064Z",
      "apogee_km": 471.6487158983455,
      "perigee_km": 469.815958463716,
      "latitude_deg": -2.6628916530379616e-05,
      "longitude_deg": 1.1477683744130738,
      "height_km": 471.7560925474848,
      "semi_major_axis_km": 6848.8693371810305,
      "eccentricity": 0.0001338,
      "inclination_deg": 53.1623,
      "raan_deg": 76.7678,
      "arg_perigee_deg": 97.835,
      "mean_anomaly_deg": 262.2803,
      "mean_motion_rev_day": 15.31702569
    },
    {
      "epoch": "2026-04-23T06:39:20.474784Z",
      "apogee_km": 471.6551039687047,
      "perigee_km": 469.73619803654765,
      "latitude_deg": 4.443722454538275e-05,
      "longitude_deg": 122.56676122770858,
      "height_km": 471.76392958551247,
      "semi_major_axis_km": 6848.832651002626,
      "eccentricity": 0.00014009,
      "inclination_deg": 53.1615,
      "raan_deg": 73.7289,
      "arg_perigee_deg": 100.1822,
      "mean_anomaly_deg": 259.9338,
      "mean_motion_rev_day": 15.31714876
    },
    {
      "epoch": "2026-04-24T20:14:23.894304Z",
      "apogee_km": 471.93533605319317,
      "perigee_km": 469.4875576182949,
      "latitude_deg": 2.317235950739448e-05,
      "longitude_deg": -90.03253632148147,
      "height_km": 471.69023083333917,
      "semi_major_axis_km": 6848.848446835744,
      "eccentricity": 0.0001787,
      "inclination_deg": 53.1589,
      "raan_deg": 66.4374,
      "arg_perigee_deg": 93.7931,
      "mean_anomaly_deg": 266.3275,
      "mean_motion_rev_day": 15.31709577
    },
    {
      "epoch": "2026-04-25T19:43:48.717696Z",
      "apogee_km": 471.9079570710337,
      "perigee_km": 469.5656422315533,
      "latitude_deg": -4.616645297120591e-06,
      "longitude_deg": -87.90589742891741,
      "height_km": 471.5763459818653,
      "semi_major_axis_km": 6848.873799651294,
      "eccentricity": 0.000171,
      "inclination_deg": 53.1593,
      "raan_deg": 61.8822,
      "arg_perigee_deg": 87.1404,
      "mean_anomaly_deg": 272.9793,
      "mean_motion_rev_day": 15.31701072
    },
    {
      "epoch": "2026-04-26T12:57:22.866336Z",
      "apogee_km": 471.7356369431427,
      "perigee_km": 469.75357060700935,
      "latitude_deg": 6.24762782094908e-05,
      "longitude_deg": 9.654213908445273,
      "height_km": 471.5385187088398,
      "semi_major_axis_km": 6848.881603775076,
      "eccentricity": 0.0001447,
      "inclination_deg": 53.159,
      "raan_deg": 58.542,
      "arg_perigee_deg": 83.9532,
      "mean_anomaly_deg": 276.1635,
      "mean_motion_rev_day": 15.31698454
    },
    {
      "epoch": "2026-04-27T20:16:35.908320Z",
      "apogee_km": 471.8948405867477,
      "perigee_km": 469.6086815183089,
      "latitude_deg": 3.335548559569775e-05,
      "longitude_deg": -107.51012702275939,
      "height_km": 472.0179100984336,
      "semi_major_axis_km": 6848.888761052528,
      "eccentricity": 0.0001669,
      "inclination_deg": 53.1621,
      "raan_deg": 52.4683,
      "arg_perigee_deg": 108.7647,
      "mean_anomaly_deg": 251.3536,
      "mean_motion_rev_day": 15.31696053
    },
    {
      "epoch": "2026-04-28T05:40:21.885024Z",
      "apogee_km": 471.866190293872,
      "perigee_km": 469.63071408227825,
      "latitude_deg": -8.572405074563626e-06,
      "longitude_deg": 109.33818813078346,
      "height_km": 471.9778560459176,
      "semi_major_axis_km": 6848.885452188075,
      "eccentricity": 0.0001632,
      "inclination_deg": 53.1615,
      "raan_deg": 50.6441,
      "arg_perigee_deg": 107.225,
      "mean_anomaly_deg": 252.893,
      "mean_motion_rev_day": 15.31697163
    },
    {
      "epoch": "2026-04-29T19:15:24.759360Z",
      "apogee_km": 471.4284376280493,
      "perigee_km": 470.00935468636453,
      "latitude_deg": 1.876604893665751e-05,
      "longitude_deg": -103.25849260113495,
      "height_km": 471.67355666711796,
      "semi_major_axis_km": 6848.855896157206,
      "eccentricity": 0.0001036,
      "inclination_deg": 53.1617,
      "raan_deg": 43.3529,
      "arg_perigee_deg": 94.486,
      "mean_anomaly_deg": 265.626,
      "mean_motion_rev_day": 15.31707078
    },
    {
      "epoch": "2026-04-30T04:39:10.513152Z",
      "apogee_km": 471.5023015827528,
      "perigee_km": 469.97691978402054,
      "latitude_deg": 2.5652804904176927e-06,
      "longitude_deg": 113.59047272630917,
      "height_km": 471.6263685111927,
      "semi_major_axis_km": 6848.876610683386,
      "eccentricity": 0.00011136,
      "inclination_deg": 53.1603,
      "raan_deg": 41.5284,
      "arg_perigee_deg": 89.0874,
      "mean_anomaly_deg": 271.0255,
      "mean_motion_rev_day": 15.31700129
    },
    {
      "epoch": "2026-05-02T03:37:59.390112Z",
      "apogee_km": 471.59074444088674,
      "perigee_km": 469.8785265320148,
      "latitude_deg": 1.2608676807415332e-06,
      "longitude_deg": 117.84510564998375,
      "height_km": 471.55301512594315,
      "semi_major_axis_km": 6848.871635486451,
      "eccentricity": 0.000125,
      "inclination_deg": 53.162,
      "raan_deg": 32.4161,
      "arg_perigee_deg": 84.6023,
      "mean_anomaly_deg": 275.5121,
      "mean_motion_rev_day": 15.31701798
    },
    {
      "epoch": "2026-05-03T10:57:11.483424Z",
      "apogee_km": 471.6569166768086,
      "perigee_km": 469.80279144207725,
      "latitude_deg": -4.759653130601669e-06,
      "longitude_deg": 0.6842413395519055,
      "height_km": 471.50339414914987,
      "semi_major_axis_km": 6848.866854059443,
      "eccentricity": 0.00013536,
      "inclination_deg": 53.1621,
      "raan_deg": 26.3419,
      "arg_perigee_deg": 82.2352,
      "mean_anomaly_deg": 277.8803,
      "mean_motion_rev_day": 15.31703402
    }
  ]
}